[{"OBJECT_NAME":"STARLINK-32944","OBJECT_ID":"2025-032T","EPOCH":"2026-03-09T03:44:54.243168","MEAN_MOTION":15.27603756,"ECCENTRICITY":0.00025418,"INCLINATION":43.0004,"RA_OF_ASC_NODE":339.4817,"ARG_OF_PERICENTER":249.7055,"MEAN_ANOMALY":110.3524,"EPHEMERIS_TYPE":0,"CLASSIFICATION_TYPE":"U","NORAD_CAT_ID":63022,"ELEMENT_SET_NO":999,"REV_AT_EPOCH":6053,"BSTAR":0.001366495,"MEAN_MOTION_DOT":0.00037562,"MEAN_MOTION_DDOT":0},{"OBJECT_NAME":"COSMOS 2251 DEB","OBJECT_ID":"1993-036RB","EPOCH":"2026-03-09T01:08:04.800192","MEAN_MOTION":15.30699894,"ECCENTRICITY":0.00252965,"INCLINATION":73.7308,"RA_OF_ASC_NODE":76.2904,"ARG_OF_PERICENTER":263.9966,"MEAN_ANOMALY":95.8352,"EPHEMERIS_TYPE":0,"CLASSIFICATION_TYPE":"U","NORAD_CAT_ID":34410,"ELEMENT_SET_NO":999,"REV_AT_EPOCH":91089,"BSTAR":0.003018315,"MEAN_MOTION_DOT":0.00091531,"MEAN_MOTION_DDOT":0}]
